ONEWEB-0668             
1 56711U 23068B   24119.27183311  .00000302  00000+0  75744-3 0  9996
2 56711  87.9140  24.0246 0002525  78.0089 282.1324 13.16594098 49152
ONEWEB-0676             
1 56712U 23068C   24119.47449939  .00000110  00000+0  25388-3 0  9996
2 56712  87.9144  23.9839 0001436  71.4389 288.6898 13.16595435 49101
ONEWEB-0677             
1 56713U 23068D   24119.59790733  .00000052  00000+0  77128-4 0  9996
2 56713  88.3260  68.5225 0001754  66.9530 293.1796 13.34785033 46830
ONEWEB-0678             
1 56714U 23068E   24119.57237574  .00000138  00000+0  33277-3 0  9995
2 56714  87.9047  54.3011 0001727  89.4283 270.7045 13.15549925 46789
ONEWEB-0679             
1 56715U 23068F   24119.44917302  .00000010  00000+0 -81235-5 0  9995
2 56715  87.9144  23.9962 0002304  62.0183 298.1181 13.16594593 49121
ONEWEB-0680             
1 56716U 23068G   24119.48496640  .00000109  00000+0  23193-3 0  9992
2 56716  87.9316  39.2038 0002742  74.5863 285.5574 13.21827214 48092
ONEWEB-0681             
1 56717U 23068H   24119.51019216 -.00000036  00000+0 -11892-3 0  9991
2 56717  87.9316  39.1863 0001295  40.9885 319.1346 13.21826527 48087
ONEWEB-0682             
1 56718U 23068J   24119.52246048  .00000069  00000+0  14969-3 0  9990
2 56718  87.9048  54.3543 0002476  71.5607 288.5792 13.15548499 46947
